{
    "links": {
        "self": "http://www.neowsapp.com/rest/v1/neo/3306407?api_key=iIulBulltgU6a56xZRHN4H3l9WmuAYTsLGpBGhQ2"
    },
    "id": "3306407",
    "neo_reference_id": "3306407",
    "name": "(2005 XX4)",
    "designation": "2005 XX4",
    "nasa_jpl_url": "http://ssd.jpl.nasa.gov/sbdb.cgi?sstr=3306407",
    "absolute_magnitude_h": 24.3,
    "estimated_diameter": {
        "kilometers": {
            "estimated_diameter_min": 0.0366906138,
            "estimated_diameter_max": 0.0820427065
        },
        "meters": {
            "estimated_diameter_min": 36.6906137531,
            "estimated_diameter_max": 82.0427064882
        },
        "miles": {
            "estimated_diameter_min": 0.0227984834,
            "estimated_diameter_max": 0.0509789586
        },
        "feet": {
            "estimated_diameter_min": 120.3760332259,
            "estimated_diameter_max": 269.1689931548
        }
    },
    "is_potentially_hazardous_asteroid": false,
    "close_approach_data": [
        {
            "close_approach_date": "2005-12-03",
            "close_approach_date_full": "2005-Dec-03 21:11",
            "epoch_date_close_approach": 1133644260000,
            "relative_velocity": {
                "kilometers_per_second": "14.9018575424",
                "kilometers_per_hour": "53646.6871528074",
                "miles_per_hour": "33333.9651366986"
            },
            "miss_distance": {
                "astronomical": "0.0185417653",
                "lunar": "7.2127467017",
                "kilometers": "2773808.594919911",
                "miles": "1723564.7381243318"
            },
            "orbiting_body": "Earth"
        }
    ],
    "orbital_data": {
        "orbit_id": "6",
        "orbit_determination_date": "2017-04-06 09:09:40",
        "first_observation_date": "2005-12-06",
        "last_observation_date": "2005-12-06",
        "data_arc_in_days": null,
        "observations_used": 15,
        "orbit_uncertainty": "9",
        "minimum_orbit_intersection": ".0159661",
        "jupiter_tisserand_invariant": "3.927",
        "epoch_osculation": "2453711.5",
        "eccentricity": ".452773072963124",
        "semi_major_axis": "1.751967898601423",
        "inclination": "22.28078321141556",
        "ascending_node_longitude": "251.9908997540539",
        "orbital_period": "847.0082556085915",
        "perihelion_distance": ".9587240094189098",
        "perihelion_argument": "149.0644994342957",
        "aphelion_distance": "2.545211787783936",
        "perihelion_time": "2453683.912175533874",
        "mean_anomaly": "11.72552539133082",
        "mean_motion": ".4250253732666787",
        "equinox": "J2000",
        "orbit_class": {
            "orbit_class_type": "APO",
            "orbit_class_description": "Near-Earth asteroid orbits which cross the Earth’s orbit similar to that of 1862 Apollo",
            "orbit_class_range": "a (semi-major axis) > 1.0 AU; q (perihelion) < 1.017 AU"
        }
    },
    "is_sentry_object": false
}